{"fetched_at":"2026-03-29T16:36:15Z","count":15609,"tles":[{"name":"STARLINK-32041","line1":"1 60202U 24124V   26087.68441030 -.00000964  00000+0 -20445-4 0  9991","line2":"2 60202  53.1602 234.2793 0001105  79.8553 280.2573 15.30192162 98401","category":"Starlink"}]}