{
  "norad_id": 60202,
  "name": "STARLINK-32041",
  "history": [
    {
      "epoch": "2026-03-28T16:25:33.049920",
      "apogee_km": 475.99577036410665,
      "perigee_km": 474.4811743847122,
      "latitude_deg": 10.389424873606826,
      "longitude_deg": -94.09661119990051,
      "semi_major_axis_km": 6853.37547237441,
      "eccentricity": 0.0001105,
      "inclination_deg": 53.1602,
      "raan_deg": 234.2793,
      "arg_perigee_deg": 79.8553,
      "mean_anomaly_deg": 280.2573,
      "mean_motion_rev_day": 15.30192162
    }
  ]
}